COSMOS 2425 (716)       
1 29670U 06062A   18118.62405693 -.00000028  00000-0  10000-3 0  9997
2 29670  65.3035 294.2101 0021667 351.8531 216.6089  2.13104951 88256
COSMOS 2426 (717)       
1 29671U 06062B   18119.46845978 -.00000032  00000-0  10000-3 0  9990
2 29671  65.3215 294.2788 0017498 157.5952 194.7794  2.13102990 88275
COSMOS 2433 (720)       
1 32275U 07052A   18119.14633481 -.00000068  00000-0  10000-3 0  9992
2 32275  65.6666  55.0067 0004287 292.5249 148.1197  2.13104552 81781
COSMOS 2432 (719)       
1 32276U 07052B   18118.74067368 -.00000069  00000-0  10000-3 0  9994
2 32276  65.6788  55.0963 0013494 332.3880 109.1124  2.13104013 81774
COSMOS 2434 (721)       
1 32393U 07065A   18118.85111137 -.00000030  00000-0  00000-0 0  9998
2 32393  64.9184 293.2012 0005835  96.1021   6.2498  2.13102959 80484
COSMOS 2436 (723)       
1 32395U 07065C   18118.81328252 -.00000030  00000-0  10000-3 0  9998
2 32395  64.9301 293.2524 0016107   7.7411 115.8386  2.13104302 80410
COSMOS 2456 (730)       
1 36111U 09070A   18119.31462961  .00000060  00000-0  00000+0 0  9995
2 36111  64.1835 172.7715 0005489 305.8190 324.2478  2.13102927 65157
COSMOS 2457 (733)       
1 36112U 09070B   18119.41591641  .00000060  00000-0  00000+0 0  9995
2 36112  64.1643 172.6800 0005756 183.2326 291.6568  2.13101563 65168
COSMOS 2458 (734)       
1 36113U 09070C   18118.57910715  .00000060  00000-0  10000-3 0  9994
2 36113  64.1703 172.7190 0002119 326.2524 275.0698  2.13102312 65149
COSMOS 2459 (731)       
1 36400U 10007A   18118.48022940 -.00000070  00000-0  10000-3 0  9991
2 36400  65.5757  54.0959 0029009 349.8331 159.1285  2.13102276 63490
COSMOS 2461 (735)       
1 36401U 10007B   18119.44799675 -.00000068  00000-0  10000-3 0  9992
2 36401  65.5685  54.0389 0006834  45.4134  36.5687  2.13102257 63515
COSMOS 2460 (732)       
1 36402U 10007C   18118.87878029 -.00000070  00000-0  10000-3 0  9993
2 36402  65.5584  54.0261 0002512 331.3760  74.6656  2.13101659 63507
COSMOS 2464 (736)       
1 37139U 10041C   18119.42590559 -.00000034  00000-0  00000+0 0  9995
2 37139  64.5224 293.0111 0024981  16.6418  34.4630  2.13102655 59587
COSMOS 2471 (701K)      
1 37372U 11009A   18119.15716995 -.00000069  00000-0  00000+0 0  9991
2 37372  65.5564  53.9634 0008382 245.2532 157.2762  2.13107581 55782
COSMOS 2474 (742)       
1 37829U 11055A   18118.71024829  .00000060  00000-0  00000-0 0  9999
2 37829  64.5064 173.4896 0009775 251.4443 133.3372  2.13101940 51149
COSMOS 2476 (744)       
1 37867U 11064A   18119.44488110  .00000060  00000-0  00000+0 0  9998
2 37867  64.4864 173.5269 0019309 244.0372  30.3609  2.13102026 50500
COSMOS 2477 (745)       
1 37868U 11064B   18119.45259396  .00000060  00000-0  00000+0 0  9992
2 37868  64.4947 173.5743 0017174 245.6079 213.6345  2.13101810 50467
COSMOS 2475 (743)       
1 37869U 11064C   18119.46485679  .00000060  00000-0  00000+0 0  9999
2 37869  64.5024 173.5688 0021736 268.7980 156.5151  2.13101989 50477
COSMOS 2485 (747)       
1 39155U 13019A   18119.37813313  .00000060  00000-0  00000+0 0  9991
2 39155  64.6562 173.6286 0019690 239.2581  28.8295  2.13101990 38979
COSMOS 2492 (754)       
1 39620U 14012A   18119.22173264 -.00000069  00000-0  10000-3 0  9995
2 39620  65.4487  53.9064 0016890 329.2776 213.5370  2.13103436 31922
COSMOS 2500 (755)       
1 40001U 14032A   18119.42213522 -.00000069  00000-0  00000+0 0  9991
2 40001  65.3894  53.8732 0005218 230.9389 327.9822  2.13102841 30143
COSMOS 2501 (702K)      
1 40315U 14075A   18118.55424193 -.00000030  00000-0  00000-0 0  9996
2 40315  64.2479 294.2729 0014356 203.6457 211.6436  2.13098547 26536
COSMOS 2514 (751)       
1 41330U 16008A   18119.31619443 -.00000069  00000-0  00000+0 0  9992
2 41330  65.1913  53.9427 0008796 231.7097  66.7172  2.13103293 17301
COSMOS 2516 (753)       
1 41554U 16032A   18118.82733840 -.00000031  00000-0  00000+0 0  9999
2 41554  64.4690 294.1150 0010114 213.0991 321.5731  2.13101662 14902
COSMOS 2522 (752)       
1 42939U 17055A   18118.56666507 -.00000029  00000-0  00000+0 0  9996
2 42939  64.6988 294.0749 0005022 246.9589 314.1577  2.13101877  4650
